FLOCK 4BE-17            
1 60492U 24149AA  26204.66600694  .00017098  00000+0  41920-3 0  9995
2 60492  97.3761 288.3466 0004730 125.5199 234.6489 15.40780910107873
FLOCK 4BE-22            
1 60494U 24149AC  26204.48437730  .00017329  00000+0  40405-3 0  9990
2 60494  97.3725 288.4144 0005013 133.7241 226.4422 15.42293661107895
FLOCK 4BE-34            
1 60495U 24149AD  26204.50239443  .00016907  00000+0  39616-3 0  9998
2 60495  97.3766 289.2766 0005386 138.8881 221.2773 15.42148638107928
FLOCK 4BE-32            
1 60497U 24149AF  26204.70478829  .00018202  00000+0  40994-3 0  9996
2 60497  97.3709 289.0550 0005349 135.5347 224.6331 15.43320958107965
FLOCK 4BE-11            
1 60501U 24149AK  26204.22681816  .00019682  00000+0  43160-3 0  9992
2 60501  97.3687 288.8351 0005374 136.9580 223.2090 15.44098653107911
FLOCK 4BE-24            
1 60505U 24149AP  26204.46846662  .00021769  00000+0  47285-3 0  9995
2 60505  97.3698 289.3533 0005584 146.1141 214.0465 15.44360001107962
FLOCK 4BE-29            
1 60509U 24149AT  26204.71026292  .00050605  00000+0  10313-2 0  9998
2 60509  97.3796 291.1722 0004104 156.1376 204.0064 15.46067747108052
FLOCK 4BE-2             
1 60511U 24149AV  26204.48763122  .00074897  00000+0  10389-2 0  9997
2 60511  97.3821 292.9273 0005191 151.7186 208.4352 15.56787431108149
FLOCK 4BE-13            
1 60512U 24149AW  26204.22817936  .00014795  00000+0  33975-3 0  9991
2 60512  97.3709 289.0355 0005498 132.7555 227.4156 15.42784687107925
FLOCK 4BE-27            
1 60513U 24149AX  26204.18453645  .00009907  00000+0  29375-3 0  9998
2 60513  97.3815 286.0653 0004716 157.3005 202.8447 15.35024754107662
FLOCK 4BE-9             
1 60514U 24149AY  26204.70585122  .00016823  00000+0  39839-3 0  9994
2 60514  97.3781 289.3561 0004245 148.9419 211.2080 15.41836451107941
FLOCK 4BE-6             
1 60516U 24149BA  26204.69962345  .00015058  00000+0  37287-3 0  9994
2 60516  97.3776 288.6374 0004863 148.8038 211.3497 15.40506954107891
FLOCK 4BE-14            
1 60517U 24149BB  26204.19376941  .00019396  00000+0  45531-3 0  9991
2 60517  97.3682 288.2986 0005896 152.5483 207.6076 15.42062963107874
FLOCK 4BE-1             
1 60518U 24149BC  26204.17153341  .00020399  00000+0  45281-3 0  9994
2 60518  97.3765 289.6846 0005569 152.3818 207.7726 15.43728639107923
FLOCK 4BE-28            
1 60519U 24149BD  26204.70910866  .00049849  00000+0  98784-3 0  9994
2 60519  97.3736 291.0795 0005566 151.2578 208.8980 15.46882231108084
FLOCK 4BE-5             
1 60559U 24149CV  26204.20141676  .00016830  00000+0  40664-3 0  9996
2 60559  97.3834 288.5706 0004600 149.4959 210.6556 15.41228821107825
